SHIJIAN-6 05A (SJ-6 05A)
1 49961U 21122A   26068.88345882  .00003299  00000+0  27617-3 0  9993
2 49961  97.4012  42.3306 0003221  76.6317 283.5266 14.99085264233873
STARLINK-33901          
1 63878U 25094Q   26068.85112424  .00011919  00000+0  10054-2 0  9993
2 63878  70.0016 234.1936 0003091 241.9102 118.1745 14.98313761 47223
